{"spkid": "20357594", "covariance": {"epoch": "2458567.5", "data": [["1.385920214465913E-15", "-1.876756052648629E-15", "-6.674688170124535E-14", "2.548172140964741E-14", "-1.401758935463782E-13", "7.703274166587285E-15"], ["-1.876756052648629E-15", "2.550991460817209E-15", "2.090538229539584E-13", "-2.083508619416244E-14", "2.304888313194765E-13", "-2.836484693525793E-14"], ["-6.674688170124535E-14", "2.090538229539584E-13", "1.6009364186039E-9", "7.332917934563689E-11", "6.847667877497723E-10", "-1.775308956455611E-10"], ["2.548172140964741E-14", "-2.083508619416244E-14", "7.332917934563689E-11", "2.170793363621695E-10", "-1.577792104119479E-10", "-1.16208320806006E-10"], ["-1.401758935463782E-13", "2.304888313194765E-13", "6.847667877497723E-10", "-1.577792104119479E-10", "4.905635888378846E-10", "1.738515875460356E-11"], ["7.703274166587285E-15", "-2.836484693525793E-14", "-1.775308956455611E-10", "-1.16208320806006E-10", "1.738515875460356E-11", "1.779534380389187E-10"]], "elements": [{"label": "e", "units": null, "value": ".2785837580031368", "title": "eccentricity", "sigma": 3.72279493722917e-08, "name": "e"}, {"units": "au", "title": "perihelion distance", "value": ".9778508657690778", "name": "q", "sigma": 5.05073406626919e-08, "label": "q"}, {"value": "2458533.789484962273", "title": "time of perihelion passage", "units": "TDB", "sigma": 4.00117035203939e-05, "name": "tp", "label": "tp"}, {"sigma": 1.47336124681685e-05, "name": "om", "units": "deg", "value": "73.77102037615722", "title": "longitude of the ascending node", "label": "node"}, {"sigma": 2.21486701370056e-05, "name": "w", "value": "356.1622708924927", "title": "argument of perihelion", "units": "deg", "label": "peri"}, {"label": "i", "units": "deg", "title": "inclination", "value": "27.30259067645726", "sigma": 1.33399189667298e-05, "name": "i"}], "labels": ["e", "q", "tp", "node", "peri", "i"]}, "elements": [{"label": "e", "name": "e", "sigma": "3.7206E-8", "value": ".2783487555166498", "title": "eccentricity", "units": null}, {"units": "au", "value": "1.355390086633288", "title": "semi-major axis", "name": "a", "sigma": "4.0804E-9", "label": "a"}, {"label": "q", "sigma": "5.0476E-8", "name": "q", "units": "au", "title": "perihelion distance", "value": ".978118942779308"}, {"sigma": "1.3337E-5", "name": "i", "units": "deg", "title": "inclination; angle with respect to x-y ecliptic plane", "value": "27.29916262949764", "label": "i"}, {"label": "node", "units": "deg", "value": "73.74826304138853", "title": "longitude of the ascending node", "sigma": "1.4732E-5", "name": "om"}, {"label": "peri", "name": "w", "sigma": "2.217E-5", "units": "deg", "title": "argument of perihelion", "value": "356.2160685088775"}, {"label": "M", "sigma": "3.2597E-5", "name": "ma", "units": "deg", "title": "mean anomaly", "value": "225.5468051403922"}, {"label": "tp", "sigma": "5.3136E-5", "name": "tp", "units": "TDB", "value": "2461415.760086146568", "title": "time of perihelion passage"}, {"label": "period", "name": "per", "sigma": "2.6027E-6", "units": "d", "value": "576.3613954557276", "title": "sidereal orbital period"}, {"units": "deg/d", "value": ".6246081067163578", "title": "mean motion", "name": "n", "sigma": "2.8206E-9", "label": "n"}, {"label": "Q", "sigma": "5.2162E-9", "name": "ad", "units": "au", "value": "1.732661230487268", "title": "aphelion distance"}], "epoch": "2461200.5"}